[{"OBJECT_NAME":"O3B FM17","OBJECT_ID":"2019-020C","EPOCH":"2026-03-02T13:51:43.242048","MEAN_MOTION":5.0011542,"ECCENTRICITY":0.0002694,"INCLINATION":0.0396,"RA_OF_ASC_NODE":339.6165,"ARG_OF_PERICENTER":356.2567,"MEAN_ANOMALY":24.1068,"EPHEMERIS_TYPE":0,"CLASSIFICATION_TYPE":"U","NORAD_CAT_ID":44114,"ELEMENT_SET_NO":999,"REV_AT_EPOCH":12619,"BSTAR":0,"MEAN_MOTION_DOT":-2.9e-7,"MEAN_MOTION_DDOT":0},{"OBJECT_NAME":"O3B FM18","OBJECT_ID":"2019-020D","EPOCH":"2026-03-02T12:34:22.884672","MEAN_MOTION":5.0011521,"ECCENTRICITY":0.000275,"INCLINATION":0.0518,"RA_OF_ASC_NODE":0.0725,"ARG_OF_PERICENTER":340.6726,"MEAN_ANOMALY":19.2372,"EPHEMERIS_TYPE":0,"CLASSIFICATION_TYPE":"U","NORAD_CAT_ID":44115,"ELEMENT_SET_NO":999,"REV_AT_EPOCH":12631,"BSTAR":0,"MEAN_MOTION_DOT":-2.9e-7,"MEAN_MOTION_DDOT":0},{"OBJECT_NAME":"SES-17","OBJECT_ID":"2021-095A","EPOCH":"2026-03-02T13:47:47.841792","MEAN_MOTION":1.0027017,"ECCENTRICITY":0.0001054,"INCLINATION":0.0237,"RA_OF_ASC_NODE":63.9843,"ARG_OF_PERICENTER":272.0224,"MEAN_ANOMALY":324.1771,"EPHEMERIS_TYPE":0,"CLASSIFICATION_TYPE":"U","NORAD_CAT_ID":49332,"ELEMENT_SET_NO":999,"REV_AT_EPOCH":1678,"BSTAR":0,"MEAN_MOTION_DOT":-2.89e-6,"MEAN_MOTION_DDOT":0},{"OBJECT_NAME":"SES-22","OBJECT_ID":"2022-071A","EPOCH":"2026-03-02T16:52:40.609920","MEAN_MOTION":1.00274316,"ECCENTRICITY":0.0001038,"INCLINATION":0.0223,"RA_OF_ASC_NODE":246.7183,"ARG_OF_PERICENTER":86.1093,"MEAN_ANOMALY":301.8132,"EPHEMERIS_TYPE":0,"CLASSIFICATION_TYPE":"U","NORAD_CAT_ID":52933,"ELEMENT_SET_NO":999,"REV_AT_EPOCH":645,"BSTAR":0,"MEAN_MOTION_DOT":8.7e-7,"MEAN_MOTION_DDOT":0},{"OBJECT_NAME":"SES-20","OBJECT_ID":"2022-123A","EPOCH":"2026-03-02T15:20:08.988288","MEAN_MOTION":1.00271527,"ECCENTRICITY":0.0001362,"INCLINATION":0.0126,"RA_OF_ASC_NODE":108.6101,"ARG_OF_PERICENTER":312.985,"MEAN_ANOMALY":225.7324,"EPHEMERIS_TYPE":0,"CLASSIFICATION_TYPE":"U","NORAD_CAT_ID":53960,"ELEMENT_SET_NO":999,"REV_AT_EPOCH":1246,"BSTAR":0,"MEAN_MOTION_DOT":-1.18e-6,"MEAN_MOTION_DDOT":0},{"OBJECT_NAME":"SES-21","OBJECT_ID":"2022-123B","EPOCH":"2026-03-02T03:13:22.801152","MEAN_MOTION":1.00274061,"ECCENTRICITY":0.00012722,"INCLINATION":0.0269,"RA_OF_ASC_NODE":62.3642,"ARG_OF_PERICENTER":278.1394,"MEAN_ANOMALY":96.7563,"EPHEMERIS_TYPE":0,"CLASSIFICATION_TYPE":"U","NORAD_CAT_ID":53961,"ELEMENT_SET_NO":999,"REV_AT_EPOCH":613,"BSTAR":0,"MEAN_MOTION_DOT":5.1e-7,"MEAN_MOTION_DDOT":0},{"OBJECT_NAME":"O3B MPOWER F1","OBJECT_ID":"2022-174A","EPOCH":"2026-02-27T12:47:31.480800","MEAN_MOTION":5.00103025,"ECCENTRICITY":0.00051583,"INCLINATION":0.0641,"RA_OF_ASC_NODE":351.4493,"ARG_OF_PERICENTER":3.4086,"MEAN_ANOMALY":238.9684,"EPHEMERIS_TYPE":0,"CLASSIFICATION_TYPE":"U","NORAD_CAT_ID":54755,"ELEMENT_SET_NO":999,"REV_AT_EPOCH":5987,"BSTAR":0,"MEAN_MOTION_DOT":-2.6e-7,"MEAN_MOTION_DDOT":0},{"OBJECT_NAME":"O3B MPOWER F2","OBJECT_ID":"2022-174B","EPOCH":"2026-02-17T08:36:28.391616","MEAN_MOTION":5.00731386,"ECCENTRICITY":0.000156,"INCLINATION":0.0642,"RA_OF_ASC_NODE":348.2682,"ARG_OF_PERICENTER":220.555,"MEAN_ANOMALY":151.1634,"EPHEMERIS_TYPE":0,"CLASSIFICATION_TYPE":"U","NORAD_CAT_ID":54756,"ELEMENT_SET_NO":999,"REV_AT_EPOCH":5944,"BSTAR":0,"MEAN_MOTION_DOT":-1.5e-7,"MEAN_MOTION_DDOT":0},{"OBJECT_NAME":"SES-18","OBJECT_ID":"2023-038A","EPOCH":"2026-03-02T15:20:08.988288","MEAN_MOTION":1.00272102,"ECCENTRICITY":0.000255,"INCLINATION":0.064,"RA_OF_ASC_NODE":273.3711,"ARG_OF_PERICENTER":31.7881,"MEAN_ANOMALY":342.174,"EPHEMERIS_TYPE":0,"CLASSIFICATION_TYPE":"U","NORAD_CAT_ID":55970,"ELEMENT_SET_NO":999,"REV_AT_EPOCH":1103,"BSTAR":0,"MEAN_MOTION_DOT":-1.18e-6,"MEAN_MOTION_DDOT":0},{"OBJECT_NAME":"SES-19","OBJECT_ID":"2023-038B","EPOCH":"2026-03-02T16:53:48.001920","MEAN_MOTION":1.00271639,"ECCENTRICITY":0.0001761,"INCLINATION":0.0568,"RA_OF_ASC_NODE":286.3319,"ARG_OF_PERICENTER":47.6227,"MEAN_ANOMALY":305.0547,"EPHEMERIS_TYPE":0,"CLASSIFICATION_TYPE":"U","NORAD_CAT_ID":55971,"ELEMENT_SET_NO":999,"REV_AT_EPOCH":1101,"BSTAR":0,"MEAN_MOTION_DOT":7.1e-7,"MEAN_MOTION_DDOT":0},{"OBJECT_NAME":"O3B MPOWER F4","OBJECT_ID":"2023-059A","EPOCH":"2026-02-17T05:46:40.580544","MEAN_MOTION":5.00119607,"ECCENTRICITY":0.00064606,"INCLINATION":0.0593,"RA_OF_ASC_NODE":7.9241,"ARG_OF_PERICENTER":334.3658,"MEAN_ANOMALY":17.6828,"EPHEMERIS_TYPE":0,"CLASSIFICATION_TYPE":"U","NORAD_CAT_ID":56367,"ELEMENT_SET_NO":999,"REV_AT_EPOCH":5260,"BSTAR":0,"MEAN_MOTION_DOT":-1.5e-7,"MEAN_MOTION_DDOT":0},{"OBJECT_NAME":"O3B MPOWER F5","OBJECT_ID":"2023-175A","EPOCH":"2026-03-02T13:36:13.837248","MEAN_MOTION":5.00115686,"ECCENTRICITY":0.0004134,"INCLINATION":0.0396,"RA_OF_ASC_NODE":2.2415,"ARG_OF_PERICENTER":343.7978,"MEAN_ANOMALY":13.9419,"EPHEMERIS_TYPE":0,"CLASSIFICATION_TYPE":"U","NORAD_CAT_ID":58346,"ELEMENT_SET_NO":999,"REV_AT_EPOCH":4409,"BSTAR":0,"MEAN_MOTION_DOT":-2.9e-7,"MEAN_MOTION_DDOT":0},{"OBJECT_NAME":"ASTRA 1P (SES-24)","OBJECT_ID":"2024-115A","EPOCH":"2026-03-02T17:59:06.156384","MEAN_MOTION":1.00270503,"ECCENTRICITY":0.000519,"INCLINATION":0.0587,"RA_OF_ASC_NODE":335.9989,"ARG_OF_PERICENTER":347.8246,"MEAN_ANOMALY":125.6574,"EPHEMERIS_TYPE":0,"CLASSIFICATION_TYPE":"U","NORAD_CAT_ID":60086,"ELEMENT_SET_NO":999,"REV_AT_EPOCH":613,"BSTAR":0,"MEAN_MOTION_DOT":1.03e-6,"MEAN_MOTION_DDOT":0},{"OBJECT_NAME":"O3B MPOWER F7","OBJECT_ID":"2024-244A","EPOCH":"2026-02-28T12:50:16.247328","MEAN_MOTION":5.00115153,"ECCENTRICITY":0.00061429,"INCLINATION":0.0693,"RA_OF_ASC_NODE":5.4961,"ARG_OF_PERICENTER":333.0934,"MEAN_ANOMALY":21.3774,"EPHEMERIS_TYPE":0,"CLASSIFICATION_TYPE":"U","NORAD_CAT_ID":62362,"ELEMENT_SET_NO":999,"REV_AT_EPOCH":2109,"BSTAR":0,"MEAN_MOTION_DOT":-2.8e-7,"MEAN_MOTION_DDOT":0},{"OBJECT_NAME":"O3B MPOWER F8","OBJECT_ID":"2024-244B","EPOCH":"2026-03-02T16:49:00.014304","MEAN_MOTION":5.00115742,"ECCENTRICITY":0.0006681,"INCLINATION":0.0528,"RA_OF_ASC_NODE":316.7878,"ARG_OF_PERICENTER":16.2103,"MEAN_ANOMALY":26.9598,"EPHEMERIS_TYPE":0,"CLASSIFICATION_TYPE":"U","NORAD_CAT_ID":62363,"ELEMENT_SET_NO":999,"REV_AT_EPOCH":1553,"BSTAR":0,"MEAN_MOTION_DOT":-2.9e-7,"MEAN_MOTION_DDOT":0}]
